[Satellite]
VERSION=1.1
NAME=CZ-6A DEB
NICKNAME=CZ-6A DEB
TLE1=1 54391U 22151DP  22342.26543512  .00001873  00000+0  48215-3 0  9995
TLE2=2 54391  98.5498 346.5151 0158526 216.5038 142.5264 14.44105750  3574
STATUS=0
